OBJECT_NAME,OBJECT_ID,EPOCH,MEAN_MOTION,ECCENTRICITY,INCLINATION,RA_OF_ASC_NODE,ARG_OF_PERICENTER,MEAN_ANOMALY,EPHEMERIS_TYPE,CLASSIFICATION_TYPE,NORAD_CAT_ID,ELEMENT_SET_NO,REV_AT_EPOCH,BSTAR,MEAN_MOTION_DOT,MEAN_MOTION_DDOT
DMSP 5D-3 F16 (USA 172),2003-048A,2026-06-04T22:32:11.358240,14.14481976,.00071153,98.9894,179.6859,172.7256,308.6551,0,U,28054,999,16775,.34125524E-4,.2E-6,0
METEOSAT-9 (MSG-2),2005-049B,2026-06-04T18:08:57.313824,1.00267492,.00023266,9.3326,54.2885,39.0161,117.8525,0,U,28912,999,687,0,.133E-5,0
DMSP 5D-3 F17 (USA 191),2006-050A,2026-06-04T20:46:55.364448,14.14991181,.00113276,98.7378,162.6881,90.8144,269.4327,0,U,29522,999,1068,.49276296E-4,.52E-6,0
FENGYUN 3A,2008-026A,2026-06-03T10:39:20.171808,14.19568113,.00089901,98.6881,95.5346,160.5127,199.6395,0,U,32958,999,93345,.67514327E-4,.99E-6,0
GOES 14,2009-033A,2026-06-04T17:07:18.289632,1.00115460,.00021324,1.6576,83.1922,0.0449,215.6931,0,U,35491,999,646,0,-.227E-5,0
DMSP 5D-3 F18 (USA 210),2009-057A,2026-06-04T21:46:20.735616,14.14889826,.00099389,98.9033,136.7033,288.6918,71.3176,0,U,35951,999,85785,.17689534E-3,.297E-5,0
EWS-G2 (GOES 15),2010-008A,2026-06-04T19:57:21.473856,1.00275904,.00055055,1.2437,83.0595,35.5705,137.5346,0,U,36411,999,5951,0,.31E-6,0
COMS 1,2010-032A,2026-06-01T17:43:38.675712,1.00271905,.00010648,4.7700,75.5552,351.7830,216.9341,0,U,36744,999,5093,0,-.334E-5,0
FENGYUN 3B,2010-059A,2026-06-05T00:13:17.158368,14.14837757,.00212844,98.9619,201.9715,219.3380,255.2561,0,U,37214,999,80570,.19082002E-4,-.8E-7,0
SUOMI NPP,2011-061A,2026-06-04T22:26:22.775712,14.19514779,.00021767,98.7951,96.8950,33.1193,327.0119,0,U,37849,999,75670,.69365016E-4,.102E-5,0
METEOSAT-10 (MSG-3),2012-035B,2026-06-04T22:07:09.040224,1.00275611,.00018052,4.6423,61.0740,337.5780,186.6643,0,U,38552,999,5073,0,.6E-7,0
METOP-B,2012-049A,2026-06-04T22:35:47.430816,14.21429368,.00028965,98.6509,207.6845,47.3983,312.7438,0,U,38771,999,71152,.80184725E-4,.132E-5,0
INSAT-3D,2013-038B,2026-06-04T21:01:15.860064,1.00269066,.00009006,1.8939,82.6962,348.2073,267.2321,0,U,39216,999,4695,0,-.327E-5,0
FENGYUN 3C,2013-052A,2026-06-04T23:00:25.917120,14.15752193,.00157547,98.4980,130.3955,60.7894,299.4854,0,U,39260,999,65683,.79872864E-4,.116E-5,0
METEOR-M 2,2014-037A,2026-06-04T21:32:43.128960,14.21458695,.00070573,98.5111,132.0718,73.7075,286.4879,0,U,40069,999,61757,.17242323E-3,.335E-5,0
HIMAWARI-8,2014-060A,2026-06-04T21:04:30.548640,1.00272390,.00009597,0.0105,25.8869,64.3788,259.8560,0,U,40267,999,4263,0,-.263E-5,0
FENGYUN 2G,2014-090A,2026-06-03T19:12:45.107712,1.00279146,.00034407,5.6052,72.9774,153.7233,53.2439,0,U,40367,999,4186,0,-.292E-5,0
METEOSAT-11 (MSG-4),2015-034A,2026-06-04T22:09:38.800800,1.00276481,.00016434,3.1717,71.1773,4.0834,159.8803,0,U,40732,999,709,0,.75E-6,0
ELEKTRO-L 2,2015-074A,2026-06-04T01:30:52.284096,1.00272364,.00013296,6.6614,70.6831,280.5449,269.5208,0,U,41105,999,3837,0,-.107E-5,0
SENTINEL-3A,2016-011A,2026-06-04T22:39:07.642080,14.26736575,.00013117,98.6251,223.5028,105.6839,254.4486,0,U,41335,999,53631,.74641513E-4,.137E-5,0
INSAT-3DR,2016-054A,2026-06-04T22:28:13.927584,1.00270379,.00102838,0.0754,88.0640,186.9613,29.4120,0,U,41752,999,3569,0,-.65E-6,0
HIMAWARI-9,2016-064A,2026-06-04T14:57:50.861376,1.00270307,.00015402,0.0411,168.7325,312.7214,136.8363,0,U,41836,999,3508,0,-.263E-5,0
GOES 16,2016-071A,2026-06-04T21:37:12.412704,1.00271166,.00006472,0.3088,85.6475,318.4934,68.8453,0,U,41866,999,3498,0,-.79E-6,0
FENGYUN 4A,2016-077A,2026-06-04T22:42:20.075616,1.00276196,.00081612,2.2918,80.4171,151.7274,125.5576,0,U,41882,999,3480,0,-.345E-5,0
CYGFM05,2016-078A,2026-06-04T20:44:26.135232,15.56099298,.00074973,34.9580,342.1576,24.9094,335.1991,0,U,41884,999,52683,.36134298E-3,.26135E-3,0
CYGFM04,2016-078B,2026-06-04T19:24:24.878592,15.60788234,.00061033,34.9333,310.8289,69.5937,290.5443,0,U,41885,999,52706,.3728393E-3,.32232E-3,0
CYGFM02,2016-078C,2026-06-04T19:58:54.533568,15.63661383,.0007124,34.9415,305.5592,72.1577,287.9926,0,U,41886,999,52723,.38297506E-3,.37081E-3,0
CYGFM01,2016-078D,2026-06-04T20:35:49.193664,15.56755242,.00073832,34.9410,343.3534,18.5119,341.5873,0,U,41887,999,52678,.35928063E-3,.26632E-3,0
CYGFM08,2016-078E,2026-06-04T20:07:29.026560,15.59338137,.00081757,34.9441,323.3834,51.8334,308.3127,0,U,41888,999,52704,.35656492E-3,.2916E-3,0
CYGFM07,2016-078G,2026-06-04T17:37:36.406560,15.59436487,.00065437,34.9457,312.4283,68.2077,291.9344,0,U,41890,999,52705,.36452171E-3,.2991E-3,0
CYGFM03,2016-078H,2026-06-04T16:55:45.578496,15.59429404,.00061206,34.9411,314.5628,53.8577,306.2714,0,U,41891,999,52702,.36249591E-3,.29731E-3,0
