DMSP 5D-3 F16 (USA 172) 
1 28054U 03048A   26155.93902035  .00000020  00000+0  34126-4 0  9995
2 28054  98.9894 179.6859 0007115 172.7256 308.6551 14.14481976167756
METEOSAT-9 (MSG-2)      
1 28912U 05049B   26155.75621891  .00000133  00000+0  00000+0 0  9993
2 28912   9.3326  54.2885 0002326  39.0161 117.8525  1.00267492  6873
DMSP 5D-3 F17 (USA 191) 
1 29522U 06050A   26155.86591857  .00000052  00000+0  49276-4 0  9997
2 29522  98.7378 162.6881 0011327  90.8144 269.4327 14.14991181 10683
FENGYUN 3A              
1 32958U 08026A   26154.44398347  .00000099  00000+0  67514-4 0  9997
2 32958  98.6881  95.5346 0008990 160.5127 199.6395 14.19568113933454
GOES 14                 
1 35491U 09033A   26155.71340613 -.00000227  00000+0  00000+0 0  9991
2 35491   1.6576  83.1922 0002132   0.0449 215.6931  1.00115460  6460
DMSP 5D-3 F18 (USA 210) 
1 35951U 09057A   26155.90718444  .00000297  00000+0  17690-3 0  9993
2 35951  98.9033 136.7033 0009938 288.6918  71.3176 14.14889826857850
EWS-G2 (GOES 15)        
1 36411U 10008A   26155.83149854  .00000031  00000+0  00000+0 0  9997
2 36411   1.2437  83.0595 0005505  35.5705 137.5346  1.00275904 59511
COMS 1                  
1 36744U 10032A   26152.73864208 -.00000334  00000+0  00000+0 0  9993
2 36744   4.7700  75.5552 0001064 351.7830 216.9341  1.00271905 50939
FENGYUN 3B              
1 37214U 10059A   26156.00922637 -.00000008  00000+0  19082-4 0  9993
2 37214  98.9619 201.9715 0021284 219.3380 255.2561 14.14837757805702
SUOMI NPP               
1 37849U 11061A   26155.93498583  .00000102  00000+0  69365-4 0  9993
2 37849  98.7951  96.8950 0002176  33.1193 327.0119 14.19514779756701
METEOSAT-10 (MSG-3)     
1 38552U 12035B   26155.92163241  .00000006  00000+0  00000+0 0  9995
2 38552   4.6423  61.0740 0001805 337.5780 186.6643  1.00275611 50731
METOP-B                 
1 38771U 12049A   26155.94152119  .00000132  00000+0  80185-4 0  9994
2 38771  98.6509 207.6845 0002896  47.3983 312.7438 14.21429368711520
INSAT-3D                
1 39216U 13038B   26155.87587801 -.00000327  00000+0  00000+0 0  9990
2 39216   1.8939  82.6962 0000900 348.2073 267.2321  1.00269066 46959
FENGYUN 3C              
1 39260U 13052A   26155.95863330  .00000116  00000+0  79873-4 0  9992
2 39260  98.4980 130.3955 0015754  60.7894 299.4854 14.15752193656839
METEOR-M 2              
1 40069U 14037A   26155.89772140  .00000335  00000+0  17242-3 0  9990
2 40069  98.5111 132.0718 0007057  73.7075 286.4879 14.21458695617571
HIMAWARI-8              
1 40267U 14060A   26155.87813135 -.00000263  00000+0  00000+0 0  9995
2 40267   0.0105  25.8869 0000959  64.3788 259.8560  1.00272390 42638
FENGYUN 2G              
1 40367U 14090A   26154.80052208 -.00000292  00000+0  00000+0 0  9999
2 40367   5.6052  72.9774 0003440 153.7233  53.2439  1.00279146 41866
METEOSAT-11 (MSG-4)     
1 40732U 15034A   26155.92336575  .00000075  00000+0  00000+0 0  9998
2 40732   3.1717  71.1773 0001643   4.0834 159.8803  1.00276481  7095
ELEKTRO-L 2             
1 41105U 15074A   26155.06310514 -.00000107  00000+0  00000+0 0  9994
2 41105   6.6614  70.6831 0001329 280.5449 269.5208  1.00272364 38376
SENTINEL-3A             
1 41335U 16011A   26155.94383845  .00000137  00000+0  74642-4 0  9995
2 41335  98.6251 223.5028 0001311 105.6839 254.4486 14.26736575536316
INSAT-3DR               
1 41752U 16054A   26155.93627231 -.00000065  00000+0  00000+0 0  9997
2 41752   0.0754  88.0640 0010283 186.9613  29.4120  1.00270379 35691
HIMAWARI-9              
1 41836U 16064A   26155.62350534 -.00000263  00000+0  00000+0 0  9996
2 41836   0.0411 168.7325 0001540 312.7214 136.8363  1.00270307 35088
GOES 16                 
1 41866U 16071A   26155.90083811 -.00000079  00000+0  00000+0 0  9994
2 41866   0.3088  85.6475 0000647 318.4934  68.8453  1.00271166 34982
FENGYUN 4A              
1 41882U 16077A   26155.94606569 -.00000345  00000+0  00000+0 0  9999
2 41882   2.2918  80.4171 0008161 151.7274 125.5576  1.00276196 34809
CYGFM05                 
1 41884U 16078A   26155.86419138  .00026135  00000+0  36134-3 0  9992
2 41884  34.9580 342.1576 0007497  24.9094 335.1991 15.56099298526838
CYGFM04                 
1 41885U 16078B   26155.80862128  .00032232  00000+0  37284-3 0  9990
2 41885  34.9333 310.8289 0006103  69.5937 290.5443 15.60788234527064
CYGFM02                 
1 41886U 16078C   26155.83257562  .00037081  00000+0  38298-3 0  9997
2 41886  34.9415 305.5592 0007124  72.1577 287.9926 15.63661383527231
CYGFM01                 
1 41887U 16078D   26155.85820826  .00026632  00000+0  35928-3 0  9996
2 41887  34.9410 343.3534 0007383  18.5119 341.5873 15.56755242526783
CYGFM08                 
1 41888U 16078E   26155.83853040  .00029160  00000+0  35656-3 0  9996
2 41888  34.9441 323.3834 0008175  51.8334 308.3127 15.59338137527044
CYGFM07                 
1 41890U 16078G   26155.73444915  .00029910  00000+0  36452-3 0  9993
2 41890  34.9457 312.4283 0006543  68.2077 291.9344 15.59436487527050
CYGFM03                 
1 41891U 16078H   26155.70538864  .00029731  00000+0  36250-3 0  9995
2 41891  34.9411 314.5628 0006120  53.8577 306.2714 15.59429404527022
